[{"OBJECT_NAME":"STARLINK-1911","OBJECT_ID":"2020-074L","EPOCH":"2026-03-10T00:00:02.999808","MEAN_MOTION":15.7196626,"ECCENTRICITY":0.00010753,"INCLINATION":53.0465,"RA_OF_ASC_NODE":276.9224,"ARG_OF_PERICENTER":50.1756,"MEAN_ANOMALY":209.8955,"EPHEMERIS_TYPE":0,"CLASSIFICATION_TYPE":"U","NORAD_CAT_ID":46749,"ELEMENT_SET_NO":999,"REV_AT_EPOCH":580,"BSTAR":0.00055147557,"MEAN_MOTION_DOT":0.00073486,"MEAN_MOTION_DDOT":0},{"OBJECT_NAME":"STARLINK-11371 [DTC]","OBJECT_ID":"2025-024A","EPOCH":"2026-03-09T08:58:24.036384","MEAN_MOTION":15.70937521,"ECCENTRICITY":0.00028213,"INCLINATION":43.0009,"RA_OF_ASC_NODE":183.6562,"ARG_OF_PERICENTER":256.8311,"MEAN_ANOMALY":103.2242,"EPHEMERIS_TYPE":0,"CLASSIFICATION_TYPE":"U","NORAD_CAT_ID":62879,"ELEMENT_SET_NO":999,"REV_AT_EPOCH":6341,"BSTAR":0.001735119,"MEAN_MOTION_DOT":0.00229396,"MEAN_MOTION_DDOT":0}]
